SL-14 R/B               
1 21423U 91042B   26032.02330508  .00000416  00000+0  49614-4 0  9990
2 21423  82.4907 254.5739 0017212   6.7971 353.3473 14.81793953847649
ERS-1                   
1 21574U 91050A   26032.27325752  .00000421  00000+0  14942-3 0  9999
2 21574  98.7895  49.5923 0031128 311.6047  48.2473 14.39417531810494
ARIANE 40 R/B           
1 21610U 91050F   26032.13338769  .00000353  00000+0  11810-3 0  9992
2 21610  98.2087  85.7282 0003369 164.4807 195.6488 14.42864649813729
INTERCOSMOS 25          
1 21819U 91086A   26032.08207745  .00001006  00000+0  19581-3 0  9994
2 21819  82.6092 332.1299 1486443 195.8096 159.1333 12.11900289492257
SL-8 R/B                
1 21876U 92008B   26032.16610303  .00000071  00000+0  58010-4 0  9991
2 21876  82.9278 294.9472 0033493 235.7185 289.1621 13.75968934704399
SL-8 R/B                
1 21938U 92020B   26031.97111409  .00000110  00000+0  97793-4 0  9990
2 21938  82.9318 181.0164 0029742  42.3435  79.5262 13.75543321696086
USA 81                  
1 21949U 92023A   26031.84360463  .00000233  00000+0  79057-4 0  9996
2 21949  85.0118 152.6853 0002383 109.9348 250.2102 14.32352951 89510
COSMOS 2219             
1 22219U 92076A   26031.59548108 -.00000239  00000+0 -10036-3 0  9990
2 22219  71.0596  95.6173 0020681 258.5420 101.3380 14.14078638713133
SL-16 R/B               
1 22220U 92076B   26031.90421986  .00000235  00000+0  14078-3 0  9995
2 22220  70.9986 265.8632 0012022 160.8328 210.2342 14.16851557716625
COSMOS 2221             
1 22236U 92080A   26031.85275789  .00002670  00000+0  23522-3 0  9998
2 22236  82.5068 314.3562 0013496 322.8242  37.2044 14.96041404775288
SL-16 R/B               
1 22285U 92093B   26032.13230101 -.00000211  00000+0 -83764-4 0  9993
2 22285  71.0210  81.0129 0004924 332.0852  28.0006 14.15442725707987
COSMOS 2228             
1 22286U 92094A   26032.02684960  .00001832  00000+0  15628-3 0  9990
2 22286  82.5171 272.4166 0019485  66.9340 293.3934 14.97018640770578
