CCSDS_OMM_VERS = 2.0
CREATION_DATE  = 
ORIGINATOR     = 

OBJECT_NAME    = SL-14 R/B
OBJECT_ID      = 1991-042B
CENTER_NAME    = EARTH
REF_FRAME      = TEME
TIME_SYSTEM    = UTC
MEAN_ELEMENT_THEORY = SGP/SGP4

EPOCH          = 2026-02-01T00:33:33.558912
MEAN_MOTION    = 14.81793953
ECCENTRICITY   = .00172125
INCLINATION    = 82.4907
RA_OF_ASC_NODE = 254.5739
ARG_OF_PERICENTER = 6.7971
MEAN_ANOMALY   = 353.3473

EPHEMERIS_TYPE = 0
CLASSIFICATION_TYPE = U
NORAD_CAT_ID   = 21423
ELEMENT_SET_NO = 999
REV_AT_EPOCH   = 84764
BSTAR          = .49613681E-4
MEAN_MOTION_DOT = .416E-5
MEAN_MOTION_DDOT = 0

CCSDS_OMM_VERS = 2.0
CREATION_DATE  = 
ORIGINATOR     = 

OBJECT_NAME    = ERS-1
OBJECT_ID      = 1991-050A
CENTER_NAME    = EARTH
REF_FRAME      = TEME
TIME_SYSTEM    = UTC
MEAN_ELEMENT_THEORY = SGP/SGP4

EPOCH          = 2026-02-01T06:33:29.449728
MEAN_MOTION    = 14.39417531
ECCENTRICITY   = .0031128
INCLINATION    = 98.7895
RA_OF_ASC_NODE = 49.5923
ARG_OF_PERICENTER = 311.6047
MEAN_ANOMALY   = 48.2473

EPHEMERIS_TYPE = 0
CLASSIFICATION_TYPE = U
NORAD_CAT_ID   = 21574
ELEMENT_SET_NO = 999
REV_AT_EPOCH   = 81049
BSTAR          = .14942078E-3
MEAN_MOTION_DOT = .421E-5
MEAN_MOTION_DDOT = 0

CCSDS_OMM_VERS = 2.0
CREATION_DATE  = 
ORIGINATOR     = 

OBJECT_NAME    = ARIANE 40 R/B
OBJECT_ID      = 1991-050F
CENTER_NAME    = EARTH
REF_FRAME      = TEME
TIME_SYSTEM    = UTC
MEAN_ELEMENT_THEORY = SGP/SGP4

EPOCH          = 2026-02-01T03:12:04.696416
MEAN_MOTION    = 14.42864649
ECCENTRICITY   = .0003369
INCLINATION    = 98.2087
RA_OF_ASC_NODE = 85.7282
ARG_OF_PERICENTER = 164.4807
MEAN_ANOMALY   = 195.6488

EPHEMERIS_TYPE = 0
CLASSIFICATION_TYPE = U
NORAD_CAT_ID   = 21610
ELEMENT_SET_NO = 999
REV_AT_EPOCH   = 81372
BSTAR          = .11810047E-3
MEAN_MOTION_DOT = .353E-5
MEAN_MOTION_DDOT = 0

CCSDS_OMM_VERS = 2.0
CREATION_DATE  = 
ORIGINATOR     = 

OBJECT_NAME    = INTERCOSMOS 25
OBJECT_ID      = 1991-086A
CENTER_NAME    = EARTH
REF_FRAME      = TEME
TIME_SYSTEM    = UTC
MEAN_ELEMENT_THEORY = SGP/SGP4

EPOCH          = 2026-02-01T01:58:11.491680
MEAN_MOTION    = 12.11900289
ECCENTRICITY   = .14864438
INCLINATION    = 82.6092
RA_OF_ASC_NODE = 332.1299
ARG_OF_PERICENTER = 195.8096
MEAN_ANOMALY   = 159.1333

EPHEMERIS_TYPE = 0
CLASSIFICATION_TYPE = U
NORAD_CAT_ID   = 21819
ELEMENT_SET_NO = 999
REV_AT_EPOCH   = 49225
BSTAR          = .19580548E-3
MEAN_MOTION_DOT = .1006E-4
MEAN_MOTION_DDOT = 0

CCSDS_OMM_VERS = 2.0
CREATION_DATE  = 
ORIGINATOR     = 

OBJECT_NAME    = SL-8 R/B
OBJECT_ID      = 1992-008B
CENTER_NAME    = EARTH
REF_FRAME      = TEME
TIME_SYSTEM    = UTC
MEAN_ELEMENT_THEORY = SGP/SGP4

EPOCH          = 2026-02-01T03:59:11.301792
MEAN_MOTION    = 13.75968934
ECCENTRICITY   = .00334936
INCLINATION    = 82.9278
RA_OF_ASC_NODE = 294.9472
ARG_OF_PERICENTER = 235.7185
MEAN_ANOMALY   = 289.1621

EPHEMERIS_TYPE = 0
CLASSIFICATION_TYPE = U
NORAD_CAT_ID   = 21876
ELEMENT_SET_NO = 999
REV_AT_EPOCH   = 70439
BSTAR          = .58010035E-4
MEAN_MOTION_DOT = .71E-6
MEAN_MOTION_DDOT = 0

CCSDS_OMM_VERS = 2.0
CREATION_DATE  = 
ORIGINATOR     = 

OBJECT_NAME    = SL-8 R/B
OBJECT_ID      = 1992-020B
CENTER_NAME    = EARTH
REF_FRAME      = TEME
TIME_SYSTEM    = UTC
MEAN_ELEMENT_THEORY = SGP/SGP4

EPOCH          = 2026-01-31T23:18:24.257376
MEAN_MOTION    = 13.75543321
ECCENTRICITY   = .00297428
INCLINATION    = 82.9318
RA_OF_ASC_NODE = 181.0164
ARG_OF_PERICENTER = 42.3435
MEAN_ANOMALY   = 79.5262

EPHEMERIS_TYPE = 0
CLASSIFICATION_TYPE = U
NORAD_CAT_ID   = 21938
ELEMENT_SET_NO = 999
REV_AT_EPOCH   = 69608
BSTAR          = .97792591E-4
MEAN_MOTION_DOT = .11E-5
MEAN_MOTION_DDOT = 0

CCSDS_OMM_VERS = 2.0
CREATION_DATE  = 
ORIGINATOR     = 

OBJECT_NAME    = USA 81
OBJECT_ID      = 1992-023A
CENTER_NAME    = EARTH
REF_FRAME      = TEME
TIME_SYSTEM    = UTC
MEAN_ELEMENT_THEORY = SGP/SGP4

EPOCH          = 2026-01-31T20:14:47.440032
MEAN_MOTION    = 14.32352951
ECCENTRICITY   = .00023839
INCLINATION    = 85.0118
RA_OF_ASC_NODE = 152.6853
ARG_OF_PERICENTER = 109.9348
MEAN_ANOMALY   = 250.2102

EPHEMERIS_TYPE = 0
CLASSIFICATION_TYPE = U
NORAD_CAT_ID   = 21949
ELEMENT_SET_NO = 999
REV_AT_EPOCH   = 8951
BSTAR          = .79056556E-4
MEAN_MOTION_DOT = .233E-5
MEAN_MOTION_DDOT = 0

CCSDS_OMM_VERS = 2.0
CREATION_DATE  = 
ORIGINATOR     = 

OBJECT_NAME    = COSMOS 2219
OBJECT_ID      = 1992-076A
CENTER_NAME    = EARTH
REF_FRAME      = TEME
TIME_SYSTEM    = UTC
MEAN_ELEMENT_THEORY = SGP/SGP4

EPOCH          = 2026-01-31T14:17:29.565312
MEAN_MOTION    = 14.14078638
ECCENTRICITY   = .00206817
INCLINATION    = 71.0596
RA_OF_ASC_NODE = 95.6173
ARG_OF_PERICENTER = 258.5420
MEAN_ANOMALY   = 101.3380

EPHEMERIS_TYPE = 0
CLASSIFICATION_TYPE = U
NORAD_CAT_ID   = 22219
ELEMENT_SET_NO = 999
REV_AT_EPOCH   = 71313
BSTAR          = -.10035966E-3
MEAN_MOTION_DOT = -.239E-5
MEAN_MOTION_DDOT = 0

CCSDS_OMM_VERS = 2.0
CREATION_DATE  = 
ORIGINATOR     = 

OBJECT_NAME    = SL-16 R/B
OBJECT_ID      = 1992-076B
CENTER_NAME    = EARTH
REF_FRAME      = TEME
TIME_SYSTEM    = UTC
MEAN_ELEMENT_THEORY = SGP/SGP4

EPOCH          = 2026-01-31T21:42:04.595904
MEAN_MOTION    = 14.16851557
ECCENTRICITY   = .00120222
INCLINATION    = 70.9986
RA_OF_ASC_NODE = 265.8632
ARG_OF_PERICENTER = 160.8328
MEAN_ANOMALY   = 210.2342

EPHEMERIS_TYPE = 0
CLASSIFICATION_TYPE = U
NORAD_CAT_ID   = 22220
ELEMENT_SET_NO = 999
REV_AT_EPOCH   = 71662
BSTAR          = .14077745E-3
MEAN_MOTION_DOT = .235E-5
MEAN_MOTION_DDOT = 0

CCSDS_OMM_VERS = 2.0
CREATION_DATE  = 
ORIGINATOR     = 

OBJECT_NAME    = COSMOS 2221
OBJECT_ID      = 1992-080A
CENTER_NAME    = EARTH
REF_FRAME      = TEME
TIME_SYSTEM    = UTC
MEAN_ELEMENT_THEORY = SGP/SGP4

EPOCH          = 2026-01-31T20:27:58.281696
MEAN_MOTION    = 14.96041404
ECCENTRICITY   = .00134968
INCLINATION    = 82.5068
RA_OF_ASC_NODE = 314.3562
ARG_OF_PERICENTER = 322.8242
MEAN_ANOMALY   = 37.2044

EPHEMERIS_TYPE = 0
CLASSIFICATION_TYPE = U
NORAD_CAT_ID   = 22236
ELEMENT_SET_NO = 999
REV_AT_EPOCH   = 77528
BSTAR          = .23522106E-3
MEAN_MOTION_DOT = .267E-4
MEAN_MOTION_DDOT = 0

CCSDS_OMM_VERS = 2.0
CREATION_DATE  = 
ORIGINATOR     = 

OBJECT_NAME    = SL-16 R/B
OBJECT_ID      = 1992-093B
CENTER_NAME    = EARTH
REF_FRAME      = TEME
TIME_SYSTEM    = UTC
MEAN_ELEMENT_THEORY = SGP/SGP4

EPOCH          = 2026-02-01T03:10:30.807264
MEAN_MOTION    = 14.15442725
ECCENTRICITY   = .00049248
INCLINATION    = 71.0210
RA_OF_ASC_NODE = 81.0129
ARG_OF_PERICENTER = 332.0852
MEAN_ANOMALY   = 28.0006

EPHEMERIS_TYPE = 0
CLASSIFICATION_TYPE = U
NORAD_CAT_ID   = 22285
ELEMENT_SET_NO = 999
REV_AT_EPOCH   = 70798
BSTAR          = -.83764247E-4
MEAN_MOTION_DOT = -.211E-5
MEAN_MOTION_DDOT = 0

CCSDS_OMM_VERS = 2.0
CREATION_DATE  = 
ORIGINATOR     = 

OBJECT_NAME    = COSMOS 2228
OBJECT_ID      = 1992-094A
CENTER_NAME    = EARTH
REF_FRAME      = TEME
TIME_SYSTEM    = UTC
MEAN_ELEMENT_THEORY = SGP/SGP4

EPOCH          = 2026-02-01T00:38:39.805440
MEAN_MOTION    = 14.97018640
ECCENTRICITY   = .00194858
INCLINATION    = 82.5171
RA_OF_ASC_NODE = 272.4166
ARG_OF_PERICENTER = 66.9340
MEAN_ANOMALY   = 293.3934

EPHEMERIS_TYPE = 0
CLASSIFICATION_TYPE = U
NORAD_CAT_ID   = 22286
ELEMENT_SET_NO = 999
REV_AT_EPOCH   = 77057
BSTAR          = .15627546E-3
MEAN_MOTION_DOT = .1832E-4
MEAN_MOTION_DDOT = 0

